NORAD_CAT_ID,OBJECT_NAME,OBJECT_TYPE,EPOCH,MEAN_MOTION,ECCENTRICITY,INCLINATION,RA_OF_ASC_NODE,ARG_OF_PERICENTER,MEAN_ANOMALY,BSTAR,MEAN_MOTION_DOT,MEAN_MOTION_DDOT,TLE_LINE0,TLE_LINE1,TLE_LINE2,SEMIMAJOR_AXIS,PERIOD,APOGEE,PERIGEE,DECAYED
52501.0,STARLINK-3907,PAYLOAD,2023-05-28 16:02:23,15.08847379,8.81e-05,53.2162,290.0139,85.4526,274.6567,0.0002012,2.916e-05,0.0,0 STARLINK-3907,1 52501U 22049BC  23148.66832234  .00002916  00000-0  20120-3 0  9998,2 52501  53.2162 290.0139 0000881  85.4526 274.6567 15.08847379 59019,6917.858,95.437,540.332,539.113,0.0
52501.0,STARLINK-3907,PAYLOAD,2023-05-29 14:17:47,15.08841217,8.85e-05,53.2162,285.8505,84.9558,275.1535,9.156e-05,1.17e-05,0.0,0 STARLINK-3907,1 52501U 22049BC  23149.59568423  .00001170  00000-0  91560-4 0  9995,2 52501  53.2162 285.8505 0000885  84.9558 275.1535 15.08841217 59152,6917.877,95.437,540.354,539.129,0.0
52501.0,STARLINK-3907,PAYLOAD,2023-05-29 15:53:10,15.08842736,8.53e-05,53.2172,285.5532,85.6867,274.4222,7.4772e-05,9.03e-06,0.0,0 STARLINK-3907,1 52501U 22049BC  23149.66192334  .00000903  00000-0  74772-4 0  9996,2 52501  53.2172 285.5532 0000853  85.6867 274.4222 15.08842736 59327,6917.872,95.437,540.327,539.147,0.0
52501.0,STARLINK-3907,PAYLOAD,2023-05-29 19:03:56,15.08844225,8.58e-05,53.2172,284.9583,85.9193,274.1897,8.284e-05,1.031e-05,0.0,0 STARLINK-3907,1 52501U 22049BC  23149.79440170  .00001031  00000-0  82840-4 0  9992,2 52501  53.2172 284.9583 0000858  85.9193 274.1897 15.08844225 59180,6917.867,95.437,540.326,539.139,0.0
52501.0,STARLINK-3907,PAYLOAD,2023-05-30 07:47:02,15.08834447,9.3e-05,53.2175,282.5779,94.221,265.8889,2.5135e-05,1.12e-06,0.0,0 STARLINK-3907,1 52501U 22049BC  23150.32432954  .00000112  00000-0  25135-4 0  9997,2 52501  53.2175 282.5779 0000930  94.2210 265.8889 15.08834447 59428,6917.897,95.438,540.406,539.119,0.0
52501.0,STARLINK-3907,PAYLOAD,2023-05-30 12:33:11,15.0883877,8.76e-05,53.2169,281.687,92.0397,268.0696,2.2319e-05,6.8e-07,0.0,0 STARLINK-3907,1 52501U 22049BC  23150.52304672  .00000068  00000-0  22319-4 0  9995,2 52501  53.2169 281.6870 0000876  92.0397 268.0696 15.08838770 59293,6917.884,95.438,540.355,539.143,0.0
52501.0,STARLINK-3907,PAYLOAD,2023-05-30 15:43:57,15.08839788,8.66e-05,53.2173,281.0922,82.9149,277.1942,-3.0708e-06,-3.37e-06,0.0,0 STARLINK-3907,1 52501U 22049BC  23150.65552660 -.00000337  00000-0 -30708-5 0  9994,2 52501  53.2173 281.0922 0000866  82.9149 277.1942 15.08839788 59310,6917.881,95.438,540.345,539.147,0.0
52501.0,STARLINK-3907,PAYLOAD,2023-05-31 09:13:12,15.08836619,8.46e-05,53.2172,277.8216,86.788,273.3209,3.4362e-05,2.59e-06,0.0,0 STARLINK-3907,1 52501U 22049BC  23151.38416858  .00000259  00000-0  34362-4 0  9993,2 52501  53.2172 277.8216 0000846  86.7880 273.3209 15.08836619 59583,6917.891,95.438,540.341,539.17,0.0
52501.0,STARLINK-3907,PAYLOAD,2023-05-31 13:59:21,15.08842633,0.0001061,53.2174,276.9297,123.3463,236.7631,5.4214e-05,5.75e-06,0.0,0 STARLINK-3907,1 52501U 22049BC  23151.58288356  .00000575  00000-0  54214-4 0  9994,2 52501  53.2174 276.9297 0001061 123.3463 236.7631 15.08842633 59450,6917.872,95.437,540.471,539.003,0.0
52501.0,STARLINK-3907,PAYLOAD,2023-05-31 15:34:44,15.08843975,9.01e-05,53.218,276.6346,103.172,256.9373,0.0001035,1.36e-05,0.0,0 STARLINK-3907,1 52501U 22049BC  23151.64912185  .00001360  00000-0  10350-3 0  9990,2 52501  53.2180 276.6346 0000901 103.1720 256.9373 15.08843975 59629,6917.868,95.437,540.357,539.11,0.0
52501.0,STARLINK-3907,PAYLOAD,2023-06-01 01:07:03,15.08840397,8.56e-05,53.2173,274.8506,118.5232,241.5846,2.8773e-05,1.7e-06,0.0,0 STARLINK-3907,1 52501U 22049BC  23152.04656538  .00000170  00000-0  28773-4 0  9999,2 52501  53.2173 274.8506 0000856 118.5232 241.5846 15.08840397 59682,6917.879,95.438,540.336,539.152,0.0
52501.0,STARLINK-3907,PAYLOAD,2023-06-02 12:05:33,15.08834371,0.0001226,53.2192,268.3099,85.3776,274.7357,-1.0635e-05,-4.57e-06,0.0,0 STARLINK-3907,1 52501U 22049BC  23153.50385663 -.00000457  00000-0 -10635-4 0  9997,2 52501  53.2192 268.3099 0001226  85.3776 274.7357 15.08834371 59909,6917.898,95.438,540.611,538.914,0.0
52501.0,STARLINK-3907,PAYLOAD,2023-06-02 13:40:56,15.08834402,0.0001114,53.2188,268.0115,83.3175,276.7944,-5.0325e-05,-1.088e-05,0.0,0 STARLINK-3907,1 52501U 22049BC  23153.57009735 -.00001088  00000-0 -50325-4 0  9998,2 52501  53.2188 268.0115 0001114  83.3175 276.7944 15.08834402 59759,6917.897,95.438,540.533,538.992,0.0
52501.0,STARLINK-3907,PAYLOAD,2023-06-02 15:16:19,15.08834714,9.98e-05,53.2181,267.7137,80.2128,279.8977,-4.9222e-05,-1.071e-05,0.0,0 STARLINK-3907,1 52501U 22049BC  23153.63633691 -.00001071  00000-0 -49222-4 0  9995,2 52501  53.2181 267.7137 0000998  80.2128 279.8977 15.08834714 59762,6917.897,95.438,540.452,539.071,0.0
52501.0,STARLINK-3907,PAYLOAD,2023-06-03 13:31:42,15.0884268,0.0001091,53.2182,263.5504,70.6423,289.4687,4.2867e-05,3.95e-06,0.0,0 STARLINK-3907,1 52501U 22049BC  23154.56369110  .00000395  00000-0  42867-4 0  9994,2 52501  53.2182 263.5504 0001091  70.6423 289.4687 15.08842680 59903,6917.872,95.437,540.492,538.982,0.0
52501.0,STARLINK-3907,PAYLOAD,2023-06-03 16:42:28,15.08847305,8.36e-05,53.2174,262.9546,96.0036,264.1051,6.0832e-05,6.81e-06,0.0,0 STARLINK-3907,1 52501U 22049BC  23154.69616614  .00000681  00000-0  60832-4 0  9992,2 52501  53.2174 262.9546 0000836  96.0036 264.1051 15.08847305 60086,6917.858,95.437,540.301,539.145,0.0
52501.0,STARLINK-3907,PAYLOAD,2023-06-04 00:39:24,15.08842551,8.23e-05,53.2171,261.4676,100.8015,259.3069,2.5459e-05,1.18e-06,0.0,0 STARLINK-3907,1 52501U 22049BC  23155.02736951  .00000118  00000-0  25459-4 0  9998,2 52501  53.2171 261.4676 0000823 100.8015 259.3069 15.08842551 60137,6917.873,95.437,540.307,539.168,0.0
52501.0,STARLINK-3907,PAYLOAD,2023-06-04 08:36:20,15.08833879,9.24e-05,53.2168,259.9809,74.3166,285.7928,0.00010828,1.436e-05,0.0,0 STARLINK-3907,1 52501U 22049BC  23155.35857440  .00001436  00000-0  10828-3 0  9998,2 52501  53.2168 259.9809 0000924  74.3166 285.7928 15.08833879 60182,6917.899,95.438,540.403,539.125,0.0
52501.0,STARLINK-3907,PAYLOAD,2023-06-04 13:22:29,15.0884117,8.41e-05,53.2169,259.0885,77.294,282.8146,0.00011573,1.555e-05,0.0,0 STARLINK-3907,1 52501U 22049BC  23155.55728970  .00001555  00000-0  11573-3 0  9995,2 52501  53.2169 259.0885 0000841  77.2940 282.8146 15.08841170 60057,6917.877,95.437,540.324,539.16,0.0
52501.0,STARLINK-3907,PAYLOAD,2023-06-05 08:27:08,15.08834238,7.93e-05,53.217,255.5212,77.2084,282.8997,-7.746e-06,-4.11e-06,0.0,0 STARLINK-3907,1 52501U 22049BC  23156.35217749 -.00000411  00000-0 -77460-5 0  9992,2 52501  53.2170 255.5212 0000793  77.2084 282.8997 15.08834238 60331,6917.898,95.438,540.312,539.214,0.0
52501.0,STARLINK-3907,PAYLOAD,2023-06-05 13:13:17,15.08839567,7.28e-05,53.2166,254.6279,77.1642,282.9432,-3.6639e-06,-3.46e-06,0.0,0 STARLINK-3907,1 52501U 22049BC  23156.55089403 -.00000346  00000-0 -36639-5 0  9998,2 52501  53.2166 254.6279 0000728  77.1642 282.9432 15.08839567 60207,6917.882,95.438,540.25,539.243,0.0
52501.0,STARLINK-3907,PAYLOAD,2023-06-06 05:07:08,15.08840087,7.55e-05,53.2169,251.6558,79.966,280.1417,4.7901e-05,4.75e-06,0.0,0 STARLINK-3907,1 52501U 22049BC  23157.21329205  .00000475  00000-0  47901-4 0  9993,2 52501  53.2169 251.6558 0000755  79.9660 280.1417 15.08840087 60467,6917.88,95.438,540.267,539.223,0.0
52501.0,STARLINK-3907,PAYLOAD,2023-06-06 11:28:40,15.08849045,8.35e-05,53.2165,250.4652,82.1178,277.9909,-3.0827e-05,-7.78e-06,0.0,0 STARLINK-3907,1 52501U 22049BC  23157.47824766 -.00000778  00000-0 -30827-4 0  9990,2 52501  53.2165 250.4652 0000835  82.1178 277.9909 15.08849045 60344,6917.853,95.437,540.295,539.14,0.0
52501.0,STARLINK-3907,PAYLOAD,2023-06-06 16:14:49,15.08849713,7.15e-05,53.2166,249.5731,88.1933,271.9141,8.4509e-05,1.058e-05,0.0,0 STARLINK-3907,1 52501U 22049BC  23157.67696354  .00001058  00000-0  84509-4 0  9998,2 52501  53.2166 249.5731 0000715  88.1933 271.9141 15.08849713 60539,6917.851,95.437,540.21,539.221,0.0
52501.0,STARLINK-3907,PAYLOAD,2023-06-07 04:57:56,15.08829087,7.76e-05,53.2166,247.1945,92.122,267.9861,2.365e-05,8.9e-07,0.0,0 STARLINK-3907,1 52501U 22049BC  23158.20689901  .00000089  00000-0  23650-4 0  9991,2 52501  53.2166 247.1945 0000776  92.1220 267.9861 15.08829087 60616,6917.914,95.438,540.316,539.242,0.0
52501.0,STARLINK-3907,PAYLOAD,2023-06-07 06:33:19,15.08830193,6.9e-05,53.2167,246.8975,90.2189,269.8882,3.4153e-05,2.56e-06,0.0,0 STARLINK-3907,1 52501U 22049BC  23158.27313867  .00000256  00000-0  34153-4 0  9999,2 52501  53.2167 246.8975 0000690  90.2189 269.8882 15.08830193 60461,6917.91,95.438,540.253,539.298,0.0
52501.0,STARLINK-3907,PAYLOAD,2023-06-07 22:27:10,15.08838594,8.71e-05,53.216,243.9244,95.2338,264.8753,4.873e-05,4.88e-06,0.0,0 STARLINK-3907,1 52501U 22049BC  23158.93553447  .00000488  00000-0  48730-4 0  9995,2 52501  53.2160 243.9244 0000871  95.2338 264.8753 15.08838594 60727,6917.885,95.438,540.352,539.147,0.0
52501.0,STARLINK-3907,PAYLOAD,2023-06-08 11:10:15,15.08840735,7.7e-05,53.2163,241.5455,94.8911,265.2169,3.9953e-06,-2.24e-06,0.0,0 STARLINK-3907,1 52501U 22049BC  23159.46545506 -.00000224  00000-0  39953-5 0  9998,2 52501  53.2163 241.5455 0000770  94.8911 265.2169 15.08840735 60645,6917.878,95.438,540.276,539.21,0.0
52501.0,STARLINK-3907,PAYLOAD,2023-06-08 17:31:47,15.08849583,7.42e-05,53.2167,240.3551,91.1538,268.954,6.0166e-05,6.7e-06,0.0,0 STARLINK-3907,1 52501U 22049BC  23159.73040731  .00000670  00000-0  60166-4 0  9991,2 52501  53.2167 240.3551 0000742  91.1538 268.9540 15.08849583 60842,6917.851,95.437,540.229,539.203,0.0
52501.0,STARLINK-3907,PAYLOAD,2023-06-09 12:36:25,15.08839565,7.4e-05,53.2163,236.7874,103.3362,256.7713,7.0345e-05,8.32e-06,0.0,0 STARLINK-3907,1 52501U 22049BC  23160.52529392  .00000832  00000-0  70345-4 0  9995,2 52501  53.2163 236.7874 0000740 103.3362 256.7713 15.08839565 60963,6917.882,95.438,540.259,539.235,0.0
